FALCONSAT-10            
1 58291U 23174AM  26068.70247784  .00006748  00000+0  25969-3 0  9991
2 58291  97.3865 145.7938 0008932 169.5942 190.5483 15.26670596129582
STARLINK-35620          
1 66474U 25262U   26068.00596273  .00032410  00000+0  11812-2 0  9992
2 66474  43.0018 299.8720 0001905 260.8885  99.1751 15.27603895 18809
